[{"OBJECT_NAME":"ALTAIR (RS65S)","OBJECT_ID":"2024-199AW","EPOCH":"2026-03-09T21:31:54.569568","MEAN_MOTION":15.34998047,"ECCENTRICITY":0.00120363,"INCLINATION":97.3179,"RA_OF_ASC_NODE":298.9542,"ARG_OF_PERICENTER":307.5319,"MEAN_ANOMALY":52.483,"EPHEMERIS_TYPE":0,"CLASSIFICATION_TYPE":"U","NORAD_CAT_ID":61779,"ELEMENT_SET_NO":999,"REV_AT_EPOCH":12187,"BSTAR":0.00027541775,"MEAN_MOTION_DOT":9.293e-5,"MEAN_MOTION_DDOT":0},{"OBJECT_NAME":"STARLINK-34528","OBJECT_ID":"2025-133H","EPOCH":"2026-03-09T10:48:59.064768","MEAN_MOTION":15.30170743,"ECCENTRICITY":0.00013093,"INCLINATION":53.16,"RA_OF_ASC_NODE":117.7817,"ARG_OF_PERICENTER":68.2412,"MEAN_ANOMALY":291.8728,"EPHEMERIS_TYPE":0,"CLASSIFICATION_TYPE":"U","NORAD_CAT_ID":64479,"ELEMENT_SET_NO":999,"REV_AT_EPOCH":4113,"BSTAR":0.00027991027,"MEAN_MOTION_DOT":7.932e-5,"MEAN_MOTION_DDOT":0}]
